#dP2024  7 21 12  0  0.00000000      96 __u+U IGS20 EXT  IAC
## 2324  43200.00000000   900.00000000 60512 0.5000000000000
+   54   G02G03G04G05G06G07G08G09G10G11G12G13G14G15G16G17G18
+        G19G20G21G22G23G24G25G26G27G28G29G30G31G32R01R02R03
+        R04R05R07R08R09R11R12R13R14R15R16R17R18R19R20R21R22
+        R24R25R26  0  0  0  0  0  0  0  0  0  0  0  0  0  0
+          0  0  0  0  0  0  0  0  0  0  0  0  0  0  0  0  0
++         8  6  7  8  8  8  7  9  8  6  7  8  7  7  8  9  9
++         8  6  8  7  6  7  9  8  9  7  7  7  8  7 10  7  7
++        10  8  7 10  7  9  8  9  8  9  8  6  9  8 10  9  7
++         8  8  8  0  0  0  0  0  0  0  0  0  0  0  0  0  0
++         0  0  0  0  0  0  0  0  0  0  0  0  0  0  0  0  0
%c M  cc GPS ccc cccc cccc cccc cccc ccccc ccccc ccccc ccccc
%c cc cc ccc ccc cccc cccc cccc cccc ccccc ccccc ccccc ccccc
%f  0.0000000  0.000000000  0.00000000000  0.000000000000000
%f  0.0000000  0.000000000  0.00000000000  0.000000000000000
%i    0    0    0    0      0      0      0      0         0
%i    0    0    0    0      0      0      0      0         0
/* IAC                                ULTRA-RAPID PREDICTION
/* S/V CLOCKS ARE ALIGNED TO GNSS TIME                      
/* G:C1WC2W R:C1PC2P E:C1XC5X C:C2IC6I J:C1CC2S             
/* PCV:IGS20_2317 OL/AL:FES2004  NONE     YN ORB:CoN CLK:CoN
*  2024 07 22  2 30  0.00000000
PG02 -19433.857625 -13618.303974 -11767.505469   -394.395093
PG03 -12411.019248 -19185.556424  13475.424982    468.299149
PG04 -12830.978152  -8860.498019  21533.828598    408.635912
PG05   5203.923159  25973.003005   1032.581745   -180.563865
PG06 -15993.066312   7850.208683  19795.511060    147.052400
PG07 -25668.300693  -5829.900347  -4542.463682    -65.330774
PG08  -3063.037003 -16765.136333 -20374.943481    284.410058
PG09 -20465.329350   2505.915600  16686.703819    282.719762
PG10  11412.309705 -12458.517446 -20193.379743    -72.397661
PG11  -1536.087775  15489.245854  21553.641101   -709.005912
PG12  10159.316909  21751.152403  11134.356945   -524.197245
PG13  -7001.310697  18611.033622 -17705.174902    666.086897
PG14 -13990.273740   8358.669872 -20895.190162    454.398599
PG15   5432.411635  16653.704895 -20428.905795    183.787665
PG16    391.773027 -25973.997846   3891.261986   -230.048089
PG17 -22621.458078  13355.247385  -4061.777197    672.589978
PG18  25413.975760   5249.367333  -6145.455838   -638.976537
PG19 -19818.551298  16820.348719   4075.281120    513.812922
PG20    119.956671  24005.058047  11591.612543    372.508734
PG21 -15249.199488 -15290.364515 -15693.745160    107.420050
PG22 -10557.777105  17049.072855 -17145.314777    -42.408135
PG23  15150.839672   1096.307502 -21783.064527    279.361652
PG24  17316.458240  15135.138273 -14060.215496   -484.053439
PG25  15351.297287  12070.830018  17782.054527    498.730714
PG26   6846.640189 -19976.445537  15730.132717    115.537493
PG27   8060.925540 -20507.412400 -14806.733136    -31.653911
PG28  17936.928071  -7457.884286  18104.069586   -341.168781
PG29  18823.339858   2127.815138  18620.188468   -588.332110
PG30 -22262.887300   3092.589277 -14201.112048   -353.680632
PG31   7224.062748 -13534.990755  21478.967117   -226.573259
PG32  21188.306344 -15516.481601  -2945.434291   -610.853173
PR01   9556.191463 -23259.879121   4325.516195     92.118151
PR02   -408.656982 -17196.222354  18850.530593    -23.814613
PR03 -11271.882942  -1692.327528  22869.046322    104.178038
PR04 -15571.698995  14182.441165  14426.016812    246.287581
PR05 -11783.820470  22567.419165  -1769.055705    134.871967
PR07  11511.268607   1087.904289 -22693.325686     87.166081
PR08  15472.480452 -14499.943480 -14095.173242     -6.098464
PR09  12477.144170  21951.737867  -3265.955928    199.033179
PR11  12267.052334   -453.675587  22371.623164     17.439315
PR12   -261.855637 -17451.566521  18628.415672     42.731052
PR13 -10769.807905 -22342.911540   5949.023690    -49.636950
PR14 -16546.947294 -14085.991647 -13359.811914     26.716107
PR15 -11550.481488   2046.242069 -22626.284807     77.634006
PR16    300.218688  17239.615612 -18765.949740     27.581873
PR17 -23724.072175  -3519.449299  -8612.089958    106.734839
PR18 -23991.582733   3712.921668   7906.685479    153.152342
PR19 -13985.401884   8406.039274  19597.387144   -284.741307
PR20   8910.579624   9946.295346  21730.072024   -116.517521
PR21  23548.369393   3886.866076   9045.847679   -119.525352
PR22  23587.004831  -3775.735293  -8915.873413     84.224224
PR24  -9932.062737  -9872.707735 -21301.473686    -64.692896
PR25  23746.793393   4408.884241   8248.478201    -97.586867
PR26  15379.635246 -13480.721425 -15241.573252      5.571884
*  2024 07 22  2 45  0.00000000
PG02 -17896.607392 -13447.724373 -14056.798284   -394.388429
PG03 -12552.590932 -20607.055988  11069.534707    468.313720
PG04 -10947.486434 -10467.081233  21838.570358    408.642861
PG05   4905.202732  25738.630120   3896.928793   -180.564972
PG06 -18009.317026   7075.057669  18304.284942    147.031554
PG07 -25984.102894  -6197.775578  -1764.786661    -65.324299
PG08  -1349.344285 -18240.672905 -19216.924672    284.424358
PG09 -19103.100196   1007.557419  18361.692841    282.733407
PG10  11986.950099 -10115.493876 -21166.151529    -72.406701
PG11  -3860.607318  14636.084286  21851.644945   -709.011806
PG12  10096.154829  22935.432560   8592.617338   -524.199983
PG13  -8653.277661  19537.862845 -15835.253491    666.089094
PG14 -14498.810120   5976.129397 -21379.054046    454.406595
PG15   3951.772696  18269.788347 -19313.432584    183.791541
PG16    754.147326 -25362.446306   6686.575088   -230.038613
PG17 -22235.688935  12766.973526  -6832.511071    672.582760
PG18  25861.017317   5610.838402  -3342.910907   -638.979994
PG19 -20237.263812  16794.611539   1202.558978    513.817711
PG20   -620.151529  22746.557400  13884.513489    372.508394
PG21 -13334.975425 -14979.306538 -17486.922049    107.417872
PG22 -10946.301482  14961.824449 -18713.086792    -42.412162
PG23  15692.056153   3490.151637 -21157.797714    279.369629
PG24  15663.753236  14978.682697 -16048.130359   -484.054698
PG25  15633.459670  14046.882844  16056.193892    498.731026
PG26   7631.167668 -18178.037342  17472.242193    115.531137
PG27   9340.841468 -21386.520652 -12563.191401    -31.654631
PG28  19789.807506  -6760.067963  16365.059015   -341.182873
PG29  17135.569293   3559.449378  19967.494668   -588.330393
PG30 -23630.761992   2390.219048 -12002.088164   -353.674715
PG31   9560.095420 -12695.297550  21114.022399   -226.572994
PG32  20979.258642 -14968.246378  -5758.763267   -610.851202
PR01   9565.069074 -23628.175113   1136.630958     92.119173
PR02    504.316021 -19194.872350  16797.661173    -23.814770
PR03  -9983.519202  -4210.022483  23137.001066    104.178608
PR04 -14567.877425  12536.575871  16805.572982    246.289283
PR05 -11630.725262  22670.090858   1457.443015    134.872448
PR07  10216.901236   3608.623699 -23052.883259     87.166807
PR08  14507.033264 -12858.648063 -16502.355386     -6.098495
PR09  12198.473882  21414.849517  -6383.157602    199.035090
PR11  13808.861035   1759.243747  21384.496161     17.438191
PR12   1005.726373 -15416.273187  20324.859957     42.731432
PR13 -10351.340222 -21512.670746   8977.539623    -49.637205
PR14 -17459.301313 -15258.533208 -10639.661680     26.716063
PR15 -13095.535081   -229.398116 -21865.095869     77.633641
PR16   -985.109261  15182.314474 -20446.255833     27.582148
PR17 -22471.403869  -3414.058221 -11524.788691    106.737849
PR18 -24765.692456   3943.660652   4793.943540    153.154038
PR19 -16288.247745   8554.919219  17657.887298   -284.742429
PR20   6165.470341   9897.747800  22686.232350   -116.518182
PR21  22246.359948   3759.039834  11930.873319   -119.528417
PR22  24501.056368  -3929.120513  -5873.181966     84.218151
PR24  -7237.487095  -9962.531694 -22322.473765    -64.694283
PR25  22548.782336   4287.361616  11159.213281    -97.588348
PR26  14371.608423 -11721.540952 -17506.693549      5.573649
EOF
